IRIDIUM 36              
1 24967U 97056C   25031.78279100  .00000947  00000+0  31070-3 0  9993
2 24967  86.3941 230.2494 0002243  91.0152 269.1303 14.37384501432621
IRIDIUM 39              
1 25042U 97069D   25032.16172099  .00001194  00000+0  30976-3 0  9993
2 25042  86.3884 269.4603 0019558  45.4585 314.8212 14.48872272429529
IRIDIUM 38              
1 25043U 97069E   25032.13181459  .00000894  00000+0  28988-3 0  9997
2 25043  86.3953 290.4262 0002547 130.9733 229.1685 14.37893970426667
IRIDIUM 42              
1 25077U 97077A   25032.18073299  .00000859  00000+0  28829-3 0  9995
2 25077  86.3966 296.4103 0001898 103.9313 256.2095 14.36147914421671
IRIDIUM 44              
1 25078U 97077B   25032.15425081  .00000878  00000+0  27272-3 0  9995
2 25078  86.3938 278.6938 0003803  99.4591 260.7038 14.40016952424159
IRIDIUM 45              
1 25104U 97082A   25031.77519410  .00023649  00000+0  98430-3 0  9993
2 25104  86.3609 113.8216 0133072 120.3611 241.0867 15.15787666431332
IRIDIUM 24              
1 25105U 97082B   25031.81579256  .00001137  00000+0  34145-3 0  9994
2 25105  86.3952 138.1364 0012158 159.5204 200.6486 14.41856862423816
IRIDIUM 51              
1 25262U 98018A   25031.70821085  .00033749  00000+0  10149-2 0  9997
2 25262  86.3907 122.8212 0108380  51.4564 309.6336 15.28524644426109
